OBJECT_NAME,OBJECT_ID,EPOCH,MEAN_MOTION,ECCENTRICITY,INCLINATION,RA_OF_ASC_NODE,ARG_OF_PERICENTER,MEAN_ANOMALY,EPHEMERIS_TYPE,CLASSIFICATION_TYPE,NORAD_CAT_ID,ELEMENT_SET_NO,REV_AT_EPOCH,BSTAR,MEAN_MOTION_DOT,MEAN_MOTION_DDOT
ATLAS CENTAUR 2,1963-047A,2026-06-27T19:27:04.097376,14.12536248,.05458879,30.3566,299.9876,331.1838,25.9614,0,U,694,999,14720,.1032229E-3,.952E-5,0
THOR AGENA D R/B,1964-002A,2026-06-27T21:38:22.420032,14.34069562,.003188,99.1152,198.2116,298.6254,61.1724,0,U,733,999,25409,.78758243E-4,.172E-5,0
SL-3 R/B,1964-053B,2026-06-27T22:28:55.615584,14.61431259,.00807578,65.0776,7.9932,257.7337,101.4712,0,U,877,999,28290,.48665163E-4,.126E-5,0
SL-8 R/B,1967-045B,2026-06-27T21:08:39.144768,14.45686703,.00631091,74.0104,142.2857,123.7951,236.9239,0,U,2802,999,10494,.64503806E-4,.206E-5,0
SL-8 R/B,1968-040B,2026-06-27T21:26:35.980800,15.03866547,.00258104,74.0313,88.3951,239.8236,120.0396,0,U,3230,999,10657,.21916012E-3,.2997E-4,0
OAO 2,1968-110A,2026-06-27T21:14:44.896704,14.47356014,.00055606,34.9949,9.9454,353.3544,6.7073,0,U,3597,999,3507,.56037438E-4,.189E-5,0
ISIS 1,1969-009A,2026-06-27T21:38:07.297440,11.30434946,.17066101,88.4436,143.2225,226.5750,118.0291,0,U,3669,999,36098,.28323827E-4,.42E-6,0
SERT 2,1970-009A,2026-06-27T18:40:40.177056,13.58739901,.00039643,99.2841,115.9230,239.6255,149.6604,0,U,4327,999,79484,.303432E-4,-.19E-6,0
SL-3 R/B,1971-028B,2026-06-27T21:19:58.132992,15.70752016,.00142997,81.2331,274.9409,242.1480,117.8330,0,U,5118,999,592,.39749499E-3,.4973E-3,0
ASTEX 1,1971-089A,2026-06-27T23:16:03.262944,14.50859221,.00179047,92.6997,187.3282,74.6190,285.6992,0,U,5560,999,87829,.1100986E-3,.434E-5,0
SL-8 R/B,1971-119B,2026-06-27T20:36:13.143744,14.39572476,.05435783,73.8881,329.4567,273.2813,80.6325,0,U,5730,999,67133,.18339814E-3,.3552E-4,0
OAO 3 (COPERNICUS),1972-065A,2026-06-27T23:43:51.616704,14.60066022,.00068526,35.0069,28.8576,336.7793,169.0928,0,U,6153,999,86232,.62783756E-4,.285E-5,0
ATLAS CENTAUR R/B,1972-065B,2026-06-27T21:12:51.240960,14.77940295,.0033979,35.0030,19.8315,219.1568,140.6673,0,U,6155,999,85757,.13634328E-3,.985E-5,0
SL-8 R/B,1975-112B,2026-06-27T11:23:01.532256,14.38251493,.00167327,74.0590,176.9485,242.5952,117.3500,0,U,8459,999,64765,.82661942E-4,.225E-5,0
SL-3 R/B,1977-057B,2026-06-27T22:44:39.778368,15.48093786,.00057619,97.5837,356.0111,235.8831,124.1873,0,U,10114,999,68537,.19114587E-3,.993E-4,0
SEASAT 1,1978-064A,2026-06-27T23:03:17.975808,14.46250366,.0001492,108.0178,356.9045,241.4586,118.6410,0,U,10967,999,52245,.99791737E-4,.22E-5,0
SL-14 R/B,1979-011B,2026-06-27T21:44:33.839808,14.92023698,.00171902,82.5239,351.9805,52.7984,307.4801,0,U,11267,999,54521,.49245013E-4,.526E-5,0
SL-8 R/B,1979-089B,2026-06-27T21:15:41.044608,14.42408458,.00153221,74.0684,247.0527,26.9519,333.2430,0,U,11574,999,45199,.65601681E-4,.191E-5,0
SL-14 R/B,1980-005B,2026-06-27T18:57:59.243328,14.91036566,.00164515,82.5132,202.7822,151.1457,209.0676,0,U,11672,999,49289,.43404263E-4,.456E-5,0
SL-8 R/B,1981-003B,2026-06-27T23:44:14.010720,15.14550071,.02506374,82.9352,187.7332,153.4126,208.0225,0,U,12139,999,33135,.36932459E-3,.15315E-3,0
SL-3 R/B,1981-046B,2026-06-27T22:41:17.112480,15.44420768,.00173542,81.2292,157.1072,1.0327,359.0949,0,U,12465,999,45543,.25356828E-3,.1182E-3,0
SL-3 R/B,1981-103B,2026-06-27T21:35:03.636096,15.22367923,.00113998,81.1589,84.0485,275.8516,84.1416,0,U,12904,999,98999,.18292488E-3,.4253E-4,0
SL-3 R/B,1982-013B,2026-06-27T22:23:48.518880,15.22852819,.00221705,81.1735,31.4438,164.5697,195.6216,0,U,13068,999,42112,.17423435E-3,.4132E-4,0
SL-3 R/B,1982-039B,2026-06-27T21:33:30.731904,15.10604581,.0027723,81.1478,88.7111,319.4401,40.4758,0,U,13154,999,39827,.2067897E-3,.3468E-4,0
SL-3 R/B,1982-079B,2026-06-27T22:28:56.809632,15.25874548,.00244778,81.1462,62.7723,149.5866,210.6794,0,U,13403,999,39450,.17411229E-3,.4524E-4,0
SL-14 R/B,1982-092B,2026-06-27T21:04:50.861280,14.86754395,.0018902,82.5674,38.2986,297.8169,72.4476,0,U,13553,999,34530,.3898714E-4,.372E-5,0
SL-3 R/B,1983-010B,2026-06-27T20:16:04.308384,15.49503761,.00147744,81.1009,226.8371,26.2740,333.9252,0,U,13819,999,37498,.23393312E-3,.12973E-3,0
SL-3 R/B,1983-075B,2026-06-27T23:32:45.871872,15.40680150,.00204699,97.6099,187.9273,188.8640,171.2247,0,U,14208,999,34712,.24337217E-3,.9913E-4,0
COSMOS 1536,1984-013A,2026-06-27T14:16:14.037888,15.25156469,.00126149,82.5441,358.4776,254.0475,105.9373,0,U,14699,999,28936,.22902806E-3,.5785E-4,0
SL-14 R/B,1984-027B,2026-06-27T22:06:11.567808,14.86067521,.00171782,82.5420,141.6514,333.2333,26.7995,0,U,14820,999,26400,.46296794E-4,.43E-5,0
