ATLAS CENTAUR 2         
1 00694U 63047A   26178.81046409  .00000952  00000+0  10322-3 0  9991
2 00694  30.3566 299.9876 0545887 331.1838  25.9614 14.12536248147205
THOR AGENA D R/B        
1 00733U 64002A   26178.90164838  .00000172  00000+0  78758-4 0  9996
2 00733  99.1152 198.2116 0031880 298.6254  61.1724 14.34069562254097
SL-3 R/B                
1 00877U 64053B   26178.93675481  .00000126  00000+0  48665-4 0  9998
2 00877  65.0776   7.9932 0080757 257.7337 101.4712 14.61431259282909
SL-8 R/B                
1 02802U 67045B   26178.88100862  .00000206  00000+0  64504-4 0  9991
2 02802  74.0104 142.2857 0063109 123.7951 236.9239 14.45686703104942
SL-8 R/B                
1 03230U 68040B   26178.89347200  .00002997  00000+0  21916-3 0  9991
2 03230  74.0313  88.3951 0025810 239.8236 120.0396 15.03866547106576
OAO 2                   
1 03597U 68110A   26178.88524186  .00000189  00000+0  56037-4 0  9998
2 03597  34.9949   9.9454 0005560 353.3544   6.7073 14.47356014 35071
ISIS 1                  
1 03669U 69009A   26178.90147335  .00000042  00000+0  28324-4 0  9992
2 03669  88.4436 143.2225 1706610 226.5750 118.0291 11.30434946360989
SERT 2                  
1 04327U 70009A   26178.77824279 -.00000019  00000+0  30343-4 0  9999
2 04327  99.2841 115.9230 0003964 239.6255 149.6604 13.58739901794844
SL-3 R/B                
1 05118U 71028B   26178.88886728  .00049730  00000+0  39749-3 0  9999
2 05118  81.2331 274.9409 0014299 242.1480 117.8330 15.70752016  5929
ASTEX 1                 
1 05560U 71089A   26178.96948221  .00000434  00000+0  11010-3 0  9992
2 05560  92.6997 187.3282 0017904  74.6190 285.6992 14.50859221878291
SL-8 R/B                
1 05730U 71119B   26178.85848546  .00003552  00000+0  18340-3 0  9999
2 05730  73.8881 329.4567 0543578 273.2813  80.6325 14.39572476671338
OAO 3 (COPERNICUS)      
1 06153U 72065A   26178.98879186  .00000285  00000+0  62784-4 0  9990
2 06153  35.0069  28.8576 0006852 336.7793 169.0928 14.60066022862328
ATLAS CENTAUR R/B       
1 06155U 72065B   26178.88392640  .00000985  00000+0  13634-3 0  9992
2 06155  35.0030  19.8315 0033979 219.1568 140.6673 14.77940295857577
SL-8 R/B                
1 08459U 75112B   26178.47432329  .00000225  00000+0  82662-4 0  9996
2 08459  74.0590 176.9485 0016732 242.5952 117.3500 14.38251493647656
SL-3 R/B                
1 10114U 77057B   26178.94768262  .00009930  00000+0  19115-3 0  9991
2 10114  97.5837 356.0111 0005761 235.8831 124.1873 15.48093786685370
SEASAT 1                
1 10967U 78064A   26178.96062472  .00000220  00000+0  99792-4 0  9991
2 10967 108.0178 356.9045 0001492 241.4586 118.6410 14.46250366522454
SL-14 R/B               
1 11267U 79011B   26178.90594722  .00000526  00000+0  49245-4 0  9997
2 11267  82.5239 351.9805 0017190  52.7984 307.4801 14.92023698545216
SL-8 R/B                
1 11574U 79089B   26178.88589172  .00000191  00000+0  65602-4 0  9996
2 11574  74.0684 247.0527 0015322  26.9519 333.2430 14.42408458451997
SL-14 R/B               
1 11672U 80005B   26178.79026902  .00000456  00000+0  43404-4 0  9992
2 11672  82.5132 202.7822 0016451 151.1457 209.0676 14.91036566492897
SL-8 R/B                
1 12139U 81003B   26178.98905105  .00015315  00000+0  36932-3 0  9999
2 12139  82.9352 187.7332 0250637 153.4126 208.0225 15.14550071331356
SL-3 R/B                
1 12465U 81046B   26178.94533695  .00011820  00000+0  25357-3 0  9991
2 12465  81.2292 157.1072 0017354   1.0327 359.0949 15.44420768455431
SL-3 R/B                
1 12904U 81103B   26178.89934764  .00004253  00000+0  18292-3 0  9991
2 12904  81.1589  84.0485 0011399 275.8516  84.1416 15.22367923989994
SL-3 R/B                
1 13068U 82013B   26178.93320045  .00004132  00000+0  17423-3 0  9991
2 13068  81.1735  31.4438 0022170 164.5697 195.6216 15.22852819421121
SL-3 R/B                
1 13154U 82039B   26178.89827236  .00003468  00000+0  20679-3 0  9992
2 13154  81.1478  88.7111 0027723 319.4401  40.4758 15.10604581398272
SL-3 R/B                
1 13403U 82079B   26178.93676863  .00004524  00000+0  17411-3 0  9990
2 13403  81.1462  62.7723 0024477 149.5866 210.6794 15.25874548394504
SL-14 R/B               
1 13553U 82092B   26178.87836645  .00000372  00000+0  38987-4 0  9999
2 13553  82.5674  38.2986 0018902 297.8169  72.4476 14.86754395345306
SL-3 R/B                
1 13819U 83010B   26178.84449431  .00012973  00000+0  23393-3 0  9999
2 13819  81.1009 226.8371 0014774  26.2740 333.9252 15.49503761374985
SL-3 R/B                
1 14208U 83075B   26178.98108648  .00009913  00000+0  24337-3 0  9999
2 14208  97.6099 187.9273 0020469 188.8640 171.2247 15.40680150347121
COSMOS 1536             
1 14699U 84013A   26178.59460692  .00005785  00000+0  22903-3 0  9993
2 14699  82.5441 358.4776 0012614 254.0475 105.9373 15.25156469289366
SL-14 R/B               
1 14820U 84027B   26178.92096722  .00000430  00000+0  46297-4 0  9995
2 14820  82.5420 141.6514 0017178 333.2333  26.7995 14.86067521264004
